NORAD_CAT_ID,OBJECT_NAME,OBJECT_TYPE,EPOCH,MEAN_MOTION,ECCENTRICITY,INCLINATION,RA_OF_ASC_NODE,ARG_OF_PERICENTER,MEAN_ANOMALY,BSTAR,MEAN_MOTION_DOT,MEAN_MOTION_DDOT,TLE_LINE0,TLE_LINE1,TLE_LINE2,SEMIMAJOR_AXIS,PERIOD,APOGEE,PERIGEE,DECAYED
52452.0,STARLINK-3909,PAYLOAD,2022-07-23 14:00:01,15.08801322,0.0002299999999999,53.2139,257.7516,37.2924,219.7957,0.0030876,0.00049143,0.0,0 STARLINK-3909,1 52452U 22049B   22204.58335648  .00049143  00000-0  30876-2 0  9994,2 52452  53.2139 257.7516 0002300  37.2924 219.7957 15.08801322  1302,6917.999,95.44,541.455,538.2719999999998,0.0
52452.0,STARLINK-3909,PAYLOAD,2022-07-23 16:00:00,15.08819769,0.0002275999999999,53.2136,257.3773,36.4197,313.4923,0.0012625,0.00019851,0.0,0 STARLINK-3909,1 52452U 22049B   22204.66667824  .00019851  00000-0  12625-2 0  9992,2 52452  53.2136 257.3773 0002276  36.4197 313.4923 15.08819769 12238,6917.941999999999,95.439,541.382,538.2330000000002,0.0
52452.0,STARLINK-3909,PAYLOAD,2022-07-23 22:00:00,15.08822344,0.0002119,53.2153,256.2523,38.8868,229.7099,0.00052407,8.058e-05,0.0,0 STARLINK-3909,1 52452U 22049B   22204.91667824  .00008058  00000-0  52407-3 0  9990,2 52452  53.2153 256.2523 0002119  38.8868 229.7099 15.08822344  1307,6917.934,95.439,541.265,538.3330000000002,0.0
52452.0,STARLINK-3909,PAYLOAD,2022-07-24 14:00:01,15.08803909,0.0002334999999999,53.2137,253.2625,33.6169,258.1713,0.0029671,0.00047204,0.0,0 STARLINK-3909,1 52452U 22049B   22205.58334491  .00047204  00000-0  29671-2 0  9997,2 52452  53.2137 253.2625 0002335  33.6169 258.1713 15.08803909  1301,6917.991,95.44,541.471,538.24,0.0
52452.0,STARLINK-3909,PAYLOAD,2022-07-24 22:00:00,15.08818507,0.0002174999999999,53.2138,251.7643,36.1561,267.2107,0.0012008,0.00018863,0.0,0 STARLINK-3909,1 52452U 22049B   22205.91667824  .00018863  00000-0  12008-2 0  9998,2 52452  53.2138 251.7643 0002175  36.1561 267.2107 15.08818507  1309,6917.946,95.439,541.316,538.306,0.0
52452.0,STARLINK-3909,PAYLOAD,2022-07-25 06:00:00,15.08849137,0.0002242,53.2139,250.2683,37.9092,277.0293,-0.0014349999999999,-0.0002306,0.0,0 STARLINK-3909,1 52452U 22049B   22206.25001157 -.00023060  00000-0 -14350-2 0  9996,2 52452  53.2139 250.2683 0002242  37.9092 277.0293 15.08849137 12479,6917.852,95.437,541.268,538.1659999999998,0.0
52452.0,STARLINK-3909,PAYLOAD,2022-07-25 14:00:01,15.08815167,0.0002432,53.2137,248.7732,34.3375,292.1985,0.0026611,0.0004229,0.0,0 STARLINK-3909,1 52452U 22049B   22206.58334491  .00042290  00000-0  26611-2 0  9999,2 52452  53.2137 248.7732 0002432  34.3375 292.1985 15.08815167  1302,6917.956,95.439,541.504,538.139,0.0
52452.0,STARLINK-3909,PAYLOAD,2022-07-25 22:00:00,15.08823292,0.0002259,53.2139,247.275,37.4864,300.6426,0.0016768,0.00026487,0.0,0 STARLINK-3909,1 52452U 22049B   22206.91667824  .00026487  00000-0  16768-2 0  9997,2 52452  53.2139 247.2750 0002259  37.4864 300.6426 15.08823292  1305,6917.931,95.439,541.359,538.234,0.0
52452.0,STARLINK-3909,PAYLOAD,2022-07-26 06:00:00,15.08858294,0.0002346999999999,53.214,245.7792,38.5125,311.1975,-0.0017364999999999,-0.00027833,0.0,0 STARLINK-3909,1 52452U 22049B   22207.25001157 -.00027833  00000-0 -17365-2 0  9998,2 52452  53.2140 245.7792 0002347  38.5125 311.1975 15.08858294 12629,6917.824000000001,95.436,541.313,538.066,0.0
52452.0,STARLINK-3909,PAYLOAD,2022-07-26 14:00:01,15.08827443,0.0002505999999999,53.2138,244.2839,35.1654,326.1523,0.0023323,0.00037014,0.0,0 STARLINK-3909,1 52452U 22049B   22207.58334491  .00037014  00000-0  23323-2 0  9995,2 52452  53.2138 244.2839 0002506  35.1654 326.1523 15.08827443  1309,6917.919,95.438,541.5169999999998,538.05,0.0
52452.0,STARLINK-3909,PAYLOAD,2022-07-26 22:00:00,15.08827761,0.000231,53.2139,242.7857,38.931,333.9917,0.002102,0.00033313,0.0,0 STARLINK-3909,1 52452U 22049B   22207.91667824  .00033313  00000-0  21020-2 0  9991,2 52452  53.2139 242.7857 0002310  38.9310 333.9917 15.08827761  1302,6917.918000000002,95.438,541.381,538.185,0.0
52452.0,STARLINK-3909,PAYLOAD,2022-07-27 14:00:01,15.08809566,0.0002472,53.2136,239.7944,33.7084,2.4108,0.0018582999999999,0.00029387,0.0,0 STARLINK-3909,1 52452U 22049B   22208.58334491  .00029387  00000-0  18583-2 0  9992,2 52452  53.2136 239.7944 0002472  33.7084   2.4108 15.08809566  1305,6917.973000000001,95.439,541.549,538.128,0.0
52452.0,STARLINK-3909,PAYLOAD,2022-07-27 16:00:00,15.08831745,0.0002452,53.2135,239.4198,34.5406,94.4651,-0.00089074,-0.00014434,0.0,0 STARLINK-3909,1 52452U 22049B   22208.66667824 -.00014434  00000-0 -89074-3 0  9993,2 52452  53.2135 239.4198 0002452  34.5406  94.4651 15.08831745 12835,6917.906,95.438,541.467,538.0740000000002,0.0
52452.0,STARLINK-3909,PAYLOAD,2022-07-27 22:00:00,15.08803319,0.0002246,53.2137,238.2963,37.6256,10.0747,0.0023822,0.00037791,0.0,0 STARLINK-3909,1 52452U 22049B   22208.91667824  .00037791  00000-0  23822-2 0  9998,2 52452  53.2137 238.2963 0002246  37.6256  10.0747 15.08803319  1308,6917.993,95.44,541.411,538.304,0.0
52452.0,STARLINK-3909,PAYLOAD,2022-07-28 14:00:01,15.08818605,0.0002488,53.2132,235.305,34.8504,35.9998,0.0013837,0.0002179,0.0,0 STARLINK-3909,1 52452U 22049B   22209.58334491  .00021790  00000-0  13837-2 0  9990,2 52452  53.2132 235.3050 0002488  34.8504  35.9998 15.08818605  1309,6917.946,95.439,541.5319999999998,538.09,0.0
52452.0,STARLINK-3909,PAYLOAD,2022-07-28 22:00:00,15.08807164,0.0002259,53.2132,233.8069,39.0189,43.4191,0.0025107,0.00039861,0.0,0 STARLINK-3909,1 52452U 22049B   22209.91667824  .00039861  00000-0  25107-2 0  9997,2 52452  53.2132 233.8069 0002259  39.0189  43.4191 15.08807164  1301,6917.981,95.44,541.409,538.283,0.0
52452.0,STARLINK-3909,PAYLOAD,2022-07-29 00:00:00,15.08815375,0.0002266,53.2132,233.4327,40.4742,134.8543,0.0020315,0.0003217,0.0,0 STARLINK-3909,1 52452U 22049B   22210.00001157  .00032170  00000-0  20315-2 0  9992,2 52452  53.2132 233.4327 0002266  40.4742 134.8543 15.08815375 13046,6917.956,95.439,541.388,538.253,0.0
52452.0,STARLINK-3909,PAYLOAD,2022-07-29 14:00:01,15.08825079,0.0002512,53.2127,230.8156,36.5579,69.0369,0.00084536,0.00013186,0.0,0 STARLINK-3909,1 52452U 22049B   22210.58334491  .00013186  00000-0  84536-3 0  9997,2 52452  53.2127 230.8156 0002512  36.5579  69.0369 15.08825079  1302,6917.926,95.438,541.529,538.053,0.0
52452.0,STARLINK-3909,PAYLOAD,2022-07-29 22:00:00,15.08809277,0.0002305,53.2127,229.3175,40.9486,76.2366,0.0023902,0.00037926,0.0,0 STARLINK-3909,1 52452U 22049B   22210.91667824  .00037926  00000-0  23902-2 0  9990,2 52452  53.2127 229.3175 0002305  40.9486  76.2366 15.08809277  1301,6917.974,95.439,541.434,538.245,0.0
52452.0,STARLINK-3909,PAYLOAD,2022-07-30 14:00:01,15.08830024,0.0002565,53.2129,226.3261,38.3662,101.9781,0.00027639,4.112e-05,0.0,0 STARLINK-3909,1 52452U 22049B   22211.58334491  .00004112  00000-0  27639-3 0  9998,2 52452  53.2129 226.3261 0002565  38.3662 101.9781 15.08830024 13282,6917.911,95.438,541.55,538.001,0.0
52452.0,STARLINK-3909,PAYLOAD,2022-07-30 22:00:00,15.08812241,0.0002387999999999,53.2136,224.8279,42.6363,109.301,0.0022789,0.0003614,0.0,0 STARLINK-3909,1 52452U 22049B   22211.91667824  .00036140  00000-0  22789-2 0  9990,2 52452  53.2136 224.8279 0002388  42.6363 109.3010 15.08812241  1309,6917.965,95.439,541.482,538.178,0.0
52452.0,STARLINK-3909,PAYLOAD,2022-07-31 14:00:01,15.08840176,0.0002638999999999,53.2143,221.8365,40.0022,135.1006,-6.8363e-05,-1.376e-05,0.0,0 STARLINK-3909,1 52452U 22049B   22212.58334491 -.00001376  00000-0 -68363-4 0  9990,2 52452  53.2143 221.8365 0002639  40.0022 135.1006 15.08840176  1303,6917.88,95.438,541.57,537.919,0.0
52452.0,STARLINK-3909,PAYLOAD,2022-07-31 22:00:00,15.08817337,0.0002495,53.2145,220.3384,44.124,142.576,0.0022462,0.0003562,0.0,0 STARLINK-3909,1 52452U 22049B   22212.91667824  .00035620  00000-0  22462-2 0  9991,2 52452  53.2145 220.3384 0002495  44.1240 142.5760 15.08817337  1309,6917.95,95.439,541.5409999999998,538.089,0.0
52452.0,STARLINK-3909,PAYLOAD,2022-08-01 14:00:01,15.08847723,0.0002747,53.2148,217.347,41.554,168.3197,-0.0007878999999999,-0.0001281,0.0,0 STARLINK-3909,1 52452U 22049B   22213.58334491 -.00012810  00000-0 -78790-3 0  9990,2 52452  53.2148 217.3470 0002747  41.5540 168.3197 15.08847723 13583,6917.857,95.437,541.622,537.821,0.0
52452.0,STARLINK-3909,PAYLOAD,2022-08-01 22:00:00,15.08822965,0.0002618999999999,53.2151,215.8489,45.603,175.8743,0.0022581999999999,0.00035819,0.0,0 STARLINK-3909,1 52452U 22049B   22213.91667824  .00035819  00000-0  22582-2 0  9995,2 52452  53.2151 215.8489 0002619  45.6030 175.8743 15.08822965  1305,6917.932,95.439,541.609,537.986,0.0
52452.0,STARLINK-3909,PAYLOAD,2022-08-02 14:00:01,15.08857243,0.0002841,53.2155,212.8576,43.2081,201.4553,-0.0013817999999999,-0.00022225,0.0,0 STARLINK-3909,1 52452U 22049B   22214.58334491 -.00022225  00000-0 -13818-2 0  9991,2 52452  53.2155 212.8576 0002841  43.2081 201.4553 15.08857243 13732,6917.828,95.436,541.658,537.727,0.0
52452.0,STARLINK-3909,PAYLOAD,2022-08-03 06:00:00,15.08853861,0.0002912,53.216,209.8649,45.6497,222.2268,-0.00093897,-0.00015208,0.0,0 STARLINK-3909,1 52452U 22049B   22215.25001157 -.00015208  00000-0 -93897-3 0  9995,2 52452  53.2160 209.8649 0002912  45.6497 222.2268 15.08853861 13838,6917.8380000000025,95.437,541.717,537.689,0.0
52452.0,STARLINK-3909,PAYLOAD,2022-08-03 14:00:01,15.08867095,0.0002904999999999,53.2161,208.3683,45.0369,234.4399,-0.0018489,-0.00029618,0.0,0 STARLINK-3909,1 52452U 22049B   22215.58334491 -.00029618  00000-0 -18489-2 0  9994,2 52452  53.2161 208.3683 0002905  45.0369 234.4399 15.08867095  1308,6917.7980000000025,95.436,541.672,537.653,0.0
52452.0,STARLINK-3909,PAYLOAD,2022-08-03 22:00:01,15.08837446,0.0002788,53.2164,206.8704,49.4723,241.6867,0.0022554,0.00035788,0.0,0 STARLINK-3909,1 52452U 22049B   22215.91668981  .00035788  00000-0  22554-2 0  9996,2 52452  53.2164 206.8704 0002788  49.4723 241.6867 15.08837446  1306,6917.888000000001,95.438,541.682,537.8240000000002,0.0
